{"type": "Feature","id": "4899","bbox": [9.51937,47.22527,9.5471,47.25118],"geometry": {"type": "Polygon","coordinates": [[[9.54313,47.23482,552.2558],[9.5471,47.24303,431.0819],[9.53418,47.25118,430.6548],[9.52938,47.24473,432.6179],[9.52605,47.23806,435.2146],[9.51937,47.23139,434.8565],[9.51993,47.22527,536.314],[9.52994,47.23194,515.0232],[9.54313,47.23482,552.2558]]]}
,"properties": {"ISO3166-1-Alpha-3": "LIE","country": "Liechtenstein","fill": "#000","name": "Schellenberg","area_km2": 2.605511,"hist_schema_id": "Elevation0-9000","hist_area_km2": {"425": 2.015238,"450": 0.201549,"475": 0.115174,"500": 0.158368,"525": 0.071989,"550": 0.043195}}}