{"type": "Feature","bbox": [9.5316,47.2275,9.5676,47.2532],"geometry": {"type": "MultiPolygon","coordinates": [[[[9.564,47.2464,539.7507],[9.556,47.2532,432.6449],[9.541,47.2432,430.6595],[9.5468,47.2397,430.5906],[9.5587,47.2462,453.4561],[9.5557,47.2418,567.9706],[9.5483,47.2369,629.7789],[9.538,47.2324,464.5016],[9.5347,47.2324,476.6469],[9.5316,47.2279,538.9829],[9.5411,47.2275,629.6926],[9.5468,47.2314,628.5013],[9.5496,47.2292,635.7939],[9.5587,47.2336,606.0341],[9.5676,47.2415,622.8047],[9.564,47.2464,539.7507]]]]}
,"properties": {"GID_1": "LIE.8_1","GID_0": "LIE","country": "Liechtenstein","province": "Schellenberg","VARNAME_1": "NA","NL_NAME_1": "NA","TYPE_1": "Gemeinden","ENGTYPE_1": "Commune","CC_1": "NA","HASC_1": "LI.SB","ISO_1": "NA","name": "Schellenberg.province","area_km2": 3.094905,"hist_schema_id": "Elevation0-9000","hist_area_km2": {"425": 0.993123,"450": 0.014393,"475": 0.02879,"500": 0.086364,"525": 0.071976,"550": 0.129562,"575": 0.331119,"600": 0.215928,"625": 0.388686,"650": 0.518259,"675": 0.187148,"700": 0.129557}}}