{"type": "Feature","id": "4900","bbox": [9.51993,47.21081,9.55433,47.23482],"geometry": {"type": "Polygon","coordinates": [[[9.55433,47.21162,442.202],[9.54482,47.22032,459.1047],[9.54038,47.22911,567.6122],[9.54313,47.23482,552.2558],[9.52994,47.23194,515.0232],[9.51993,47.22527,536.314],[9.52493,47.21693,524.1276],[9.54217,47.21081,439.6651],[9.55433,47.21162,442.202]]]}
,"properties": {"ISO3166-1-Alpha-3": "LIE","country": "Liechtenstein","fill": "#00F","name": "Mauren","area_km2": 3.499145,"hist_schema_id": "Elevation0-9000","hist_area_km2": {"450": 0.835283,"475": 0.331215,"500": 0.403201,"525": 0.374372,"550": 0.518363,"575": 0.475145,"600": 0.331177,"625": 0.172791,"650": 0.057598}}}