{"type": "Feature","bbox": [9.532,47.1964,9.5851,47.2344],"geometry": {"type": "MultiPolygon","coordinates": [[[[9.5565,47.2305,630.0224],[9.5587,47.2336,606.0341],[9.5534,47.2321,662.802],[9.5419,47.2253,566.0293],[9.5383,47.2252,599.9835],[9.5354,47.2223,578.2491],[9.5375,47.2203,483.2674],[9.533,47.2178,501.172],[9.532,47.2148,498.5224],[9.5467,47.2064,442.5401],[9.5511,47.2082,469.3529],[9.5522,47.2103,450.6056],[9.5616,47.2115,458.0074],[9.5654,47.2056,578.2498],[9.5597,47.2032,613.5933],[9.5805,47.1964,1539.2976],[9.5814,47.2006,1376.6616],[9.5851,47.2059,1296.7849],[9.5787,47.2095,816.0848],[9.5759,47.2143,580.0721],[9.5688,47.2204,445.817],[9.5588,47.2247,441.1483],[9.5556,47.2231,442.7726],[9.5556,47.2244,461.0504],[9.552,47.2243,493.0242],[9.5565,47.2305,630.0224]]],
[[[9.5593,47.2342,641.7147],[9.5595,47.2343,641.7147],[9.5595,47.2344,641.7147],[9.5594,47.2343,641.7147],[9.5593,47.2342,641.7147]]]]}
,"properties": {"GID_1": "LIE.4_1","GID_0": "LIE","country": "Liechtenstein","province": "Mauren","VARNAME_1": "NA","NL_NAME_1": "NA","TYPE_1": "Gemeinden","ENGTYPE_1": "Commune","CC_1": "NA","HASC_1": "LI.MA","ISO_1": "LI-04","name": "Mauren.province","area_km2": 6.797651,"hist_schema_id": "Elevation0-9000","hist_area_km2": {"450": 2.894662,"475": 0.547238,"500": 0.446422,"525": 0.316806,"550": 0.273608,"575": 0.201607,"600": 0.172809,"625": 0.187198,"650": 0.1584,"675": 0.100824,"700": 0.028807,"725": 0.086423,"750": 0.043213,"775": 0.072017,"800": 0.043211,"825": 0.043212,"850": 0.07202,"875": 0.014404,"900": 0.086425,"925": 0.014404,"950": 0.086425,"975": 0.028811,"1000": 0.057617,"1025": 0.057618,"1050": 0.028808,"1075": 0.057619,"1100": 0.014405,"1125": 0.10083399999999999,"1150": 0.043214,"1175": 0.057621,"1200": 0.043214,"1225": 0.028811,"1250": 0.057619,"1275": 0.057622,"1300": 0.05762,"1325": 0.072027,"1375": 0.02881,"1400": 0.028811,"1425": 0.014406,"1450": 0.028812,"1475": 0.043218}}}