{"type":"Feature","properties":{"ISO3166-1-Alpha-3":"LIE","country":"Liechtenstein","fill":"#F0F","id":"4895","name":"Vaduz"},
"geometry":{"type": "MultiPolygon","coordinates": [[[[9.59778,47.09069,1981.49],[9.59834,47.09904,1771.394],[9.59167,47.11127,1423.1727],[9.58555,47.1096,1532.9492],[9.57609,47.10849,1306.1635],[9.56831,47.10738,1567.4655],[9.56887,47.09792,1839.4889],[9.56775,47.08847,1808.9274],[9.58277,47.0868,1549.6869],[9.59778,47.09069,1981.49]]],
[[[9.5127,47.16744,468.17],[9.50547,47.1691,448.4308],[9.50825,47.15298,461.8378],[9.49553,47.15595,452.6695],[9.50348,47.14539,459.6129],[9.51185,47.12937,463.4417],[9.52716,47.13073,598.7103],[9.52771,47.14297,692.8786],[9.53161,47.14575,892.1883],[9.54217,47.14575,1401.2061],[9.54551,47.15186,1416.7946],[9.54829,47.16076,1498.6876],[9.53828,47.16243,900.6868],[9.52549,47.16521,611.1251],[9.5177,47.16132,526.4811],[9.5127,47.16744,468.17]]]]}}