{"type": "Feature","bbox": [9.4974,47.0892,9.6117,47.1962],"geometry": {"type": "MultiPolygon","coordinates": [[[[9.6048,47.0892,1971.8904],[9.6066,47.0901,2027.2379],[9.6095,47.0982,1646.234],[9.6064,47.1045,1564.8505],[9.5985,47.1098,1474.7911],[9.5859,47.1124,1436.3867],[9.5839,47.1053,1413.8943],[9.5861,47.0968,1614.0754],[9.589,47.0925,1601.8647],[9.6048,47.0892,1971.8904]]],
[[[9.6026,47.1414,1473.5029],[9.5959,47.1367,1588.8997],[9.5894,47.1354,1755.9656],[9.5942,47.1308,2002.2927],[9.6028,47.1309,1667.6323],[9.6056,47.1291,1645.9148],[9.6117,47.1288,1581.5417],[9.6097,47.1363,1548.7759],[9.6026,47.1414,1473.5029]]],
[[[9.5546,47.1933,782.5551],[9.5523,47.1931,739.5901],[9.5581,47.1901,1035.2323],[9.5566,47.1922,826.1811],[9.5546,47.1933,782.5551]]],
[[[9.509,47.1455,455.0351],[9.5166,47.1268,458.7521],[9.5354,47.1277,933.9543],[9.5362,47.1305,909.452],[9.532,47.1364,852.4723],[9.533,47.1411,1037.2706],[9.5365,47.1432,1103.3301],[9.5348,47.1477,1027.9971],[9.5401,47.1453,1358.6193],[9.5405,47.1499,1139.751],[9.5443,47.15,1344.4983],[9.5475,47.1477,1763.1753],[9.5544,47.1502,1908.4655],[9.5531,47.1548,1794.1089],[9.5576,47.1639,2002.6777],[9.5534,47.1655,1671.4697],[9.5371,47.1654,919.4746],[9.5259,47.1673,558.7846],[9.5241,47.1649,597.4664],[9.5215,47.1645,552.2987],[9.5218,47.16,584.9177],[9.5153,47.1586,505.8135],[9.5101,47.1609,466.1508],[9.5087,47.1687,449.6412],[9.4974,47.1698,447.7117],[9.4985,47.1655,447.3634],[9.5093,47.1591,454.7378],[9.5084,47.1579,456.3228],[9.5123,47.1507,496.5838],[9.5169,47.1464,491.7804],[9.5132,47.1454,460.1555],[9.5062,47.153,457.3043],[9.5018,47.153,452.489],[9.509,47.1455,455.0351]]],
[[[9.5236,47.1793,472.7003],[9.5295,47.1761,534.729],[9.5318,47.1781,550.6443],[9.5247,47.1813,471.0724],[9.5236,47.1793,472.7003]]],
[[[9.5076,47.1962,439.3049],[9.5065,47.1962,439.3049],[9.5089,47.1912,440.0315],[9.5136,47.1852,441.365],[9.522,47.1855,441.5408],[9.5189,47.1957,438.8878],[9.5076,47.1962,439.3049]]]]}
,"properties": {"GID_1": "LIE.11_1","GID_0": "LIE","country": "Liechtenstein","province": "Vaduz","VARNAME_1": "NA","NL_NAME_1": "NA","TYPE_1": "Gemeinden","ENGTYPE_1": "Commune","CC_1": "NA","HASC_1": "LI.VA","ISO_1": "NA","name": "Valduz.province","area_km2": 16.46944,"hist_schema_id": "Elevation0-9000","hist_area_km2": {"450": 3.33027,"475": 0.5191,"500": 0.60562,"525": 0.4037,"550": 0.31721,"575": 0.31725,"600": 0.41814,"625": 0.28835,"650": 0.28839,"675": 0.41816,"700": 0.30279,"725": 0.20187,"750": 0.24512,"775": 0.12977,"800": 0.2163,"825": 0.2307,"850": 0.21629,"875": 0.2163,"900": 0.17302,"925": 0.2163,"950": 0.08651,"975": 0.08651,"1000": 0.05767,"1025": 0.10093,"1050": 0.20186,"1075": 0.04325,"1100": 0.14418,"1125": 0.08651,"1150": 0.07209,"1175": 0.10093,"1200": 0.10092,"1225": 0.05767,"1250": 0.07209,"1275": 0.0865,"1300": 0.07209,"1325": 0.02883,"1350": 0.07209,"1375": 0.08651,"1400": 0.10096,"1425": 0.11538,"1450": 0.21637,"1475": 0.36059,"1500": 0.27403,"1525": 0.24523,"1550": 0.24521,"1575": 0.24524,"1600": 0.30293,"1625": 0.33183,"1650": 0.27412,"1675": 0.30302,"1700": 0.31742,"1725": 0.24527,"1750": 0.25971,"1775": 0.31748,"1800": 0.33185,"1825": 0.27419,"1850": 0.23088,"1875": 0.30307,"1900": 0.21648,"1925": 0.15877,"1950": 0.05774,"2000": 0.05774,"2025": 0.07216}}}