{"type":"Feature","properties":{"GID_1":"LIE.3_1","GID_0":"LIE","country":"Liechtenstein","province":"Gamprin","VARNAME_1":"NA","NL_NAME_1":"NA","TYPE_1":"Gemeinden","ENGTYPE_1":"Commune","CC_1":"NA","HASC_1":"LI.GA","ISO_1":"LI-03","name":"Gamprin.province"},
"geometry":{"type": "MultiPolygon","coordinates": [[[[9.563,47.1938,1046.4712],[9.5644,47.1938,1057.3459],[9.564,47.1967,956.7123],[9.5618,47.1997,734.2326],[9.5564,47.2007,584.922],[9.5513,47.2038,512.6871],[9.5492,47.2025,517.7367],[9.5526,47.199,544.9406],[9.5423,47.1964,474.0993],[9.5416,47.1942,486.2717],[9.5484,47.1951,560.9202],[9.5523,47.1931,739.5901],[9.5539,47.1938,709.4603],[9.5531,47.1966,640.8065],[9.5545,47.1975,577.4876],[9.563,47.1938,1046.4712]]],
[[[9.5109,47.1963,438.6804],[9.5346,47.1945,440.9032],[9.5338,47.1963,438.5489],[9.5157,47.2012,438.4167],[9.5096,47.214,514.3041],[9.5143,47.214,501.6672],[9.5161,47.2156,520.1799],[9.5162,47.2208,527.7445],[9.5236,47.2249,563.3715],[9.5302,47.2259,584.9014],[9.5333,47.2239,593.9973],[9.5411,47.2275,629.6926],[9.5319,47.2277,538.9829],[9.5319,47.2292,538.0659],[9.5281,47.2298,529.5195],[9.5273,47.2325,455.6594],[9.5219,47.2365,435.0504],[9.5173,47.2345,435.0542],[9.5135,47.235,436.541],[9.5035,47.2232,438.9056],[9.4986,47.2103,438.7306],[9.5058,47.2082,440.3116],[9.4964,47.1996,440.4027],[9.4989,47.1968,439.6877],[9.5027,47.1974,439.9337],[9.5043,47.203,439.2556],[9.5099,47.2006,438.6677],[9.5109,47.1963,438.6804]]]]}}