{"type": "Feature","id": "4897","bbox": [9.48643,47.19135,9.53105,47.22893],"geometry": {"type": "Polygon","coordinates": [[[9.5127,47.22471,472.7693],[9.5038,47.22749,439.257],[9.49704,47.22893,436.1282],[9.48736,47.21001,440.6776],[9.48643,47.19692,442.8044],[9.49991,47.1919,440.9905],[9.51715,47.19135,440.6575],[9.53105,47.19468,438.3681],[9.51882,47.19969,439.3331],[9.50936,47.20469,439.2323],[9.50825,47.2147,514.3041],[9.5127,47.22471,472.7693]]]}
,"properties": {"ISO3166-1-Alpha-3": "LIE","country": "Liechtenstein","fill": "#F0F","name": "Gamprin","area_km2": 7.043453,"hist_schema_id": "Elevation0-9000","hist_area_km2": {"425": 0.792003,"450": 5.992236,"475": 0.230411,"500": 0.028803}}}