{"type": "Feature","bbox": [9.4896,47.1899,9.5794,47.2312],"geometry": {"type": "MultiPolygon","coordinates": [[[[9.563,47.1938,1046.4712],[9.5546,47.1975,577.4876],[9.5531,47.1966,640.8065],[9.5529,47.1947,680.3702],[9.5581,47.1901,1035.2323],[9.5621,47.19,1210.0254],[9.563,47.1938,1046.4712]]],
[[[9.5028,47.2083,442.2683],[9.4986,47.2103,438.7306],[9.4897,47.1975,438.5],[9.4896,47.1954,447.2068],[9.4932,47.1937,441.4225],[9.4959,47.1899,442.5428],[9.5062,47.1962,439.3049],[9.5108,47.1961,438.6804],[9.5099,47.2006,438.6677],[9.5043,47.203,439.2556],[9.5028,47.1974,439.9337],[9.4966,47.1979,440.1022],[9.4964,47.1998,440.4027],[9.5058,47.2084,440.3116],[9.5028,47.2083,442.2683]]],
[[[9.5429,47.2263,609.568],[9.5487,47.2292,628.9204],[9.5472,47.2312,662.2422],[9.5334,47.224,593.9973],[9.5288,47.2259,584.9014],[9.5163,47.2209,527.7445],[9.5161,47.2155,520.1799],[9.5141,47.2139,501.6672],[9.5096,47.2139,514.3041],[9.5156,47.2012,438.4167],[9.5399,47.1938,470.4674],[9.5423,47.1964,474.0993],[9.5526,47.199,544.9406],[9.5492,47.2025,517.7367],[9.5513,47.2038,512.6871],[9.5564,47.2007,584.922],[9.562,47.1995,734.2326],[9.5662,47.1905,1403.7372],[9.5699,47.1912,1540.1841],[9.5731,47.1899,1617.6052],[9.5728,47.1914,1605.0549],[9.5789,47.1951,1619.6487],[9.5794,47.1963,1518.4091],[9.5755,47.1987,1302.2583],[9.5693,47.1992,1003.3985],[9.5594,47.2035,613.5933],[9.5654,47.2056,578.2498],[9.5616,47.2115,458.0074],[9.5522,47.2103,450.6056],[9.5511,47.2082,469.3529],[9.5467,47.2064,442.5401],[9.5327,47.214,479.0773],[9.533,47.2178,501.172],[9.5376,47.2204,483.2674],[9.5354,47.2224,578.2491],[9.5386,47.2254,599.9835],[9.5429,47.2263,609.568]]]]}
,"properties": {"GID_1": "LIE.2_1","GID_0": "LIE","country": "Liechtenstein","province": "Eschen","VARNAME_1": "NA","NL_NAME_1": "NA","TYPE_1": "Gemeinden","ENGTYPE_1": "Commune","CC_1": "NA","HASC_1": "LI.ES","ISO_1": "LI-02","name": "Eschen.province","area_km2": 10.183713,"hist_schema_id": "Elevation0-9000","hist_area_km2": {"425": 0.388928,"450": 5.084878,"475": 0.792198,"500": 0.676916,"525": 0.432062,"550": 0.475254,"575": 0.27363,"600": 0.273604,"625": 0.302409,"650": 0.143993,"675": 0.057624,"700": 0.014407,"725": 0.057625,"750": 0.028811,"775": 0.028813,"800": 0.043218,"825": 0.028814,"850": 0.028814,"875": 0.057625,"900": 0.014406,"950": 0.04322,"975": 0.043219,"1000": 0.072037,"1025": 0.043221,"1050": 0.028814,"1075": 0.014408,"1100": 0.086442,"1150": 0.043221,"1175": 0.057628,"1200": 0.057627,"1225": 0.043223,"1250": 0.014407,"1275": 0.028813,"1300": 0.072035,"1350": 0.014407,"1375": 0.072036,"1400": 0.028815,"1425": 0.043221999999999997,"1450": 0.028814,"1500": 0.028815,"1525": 0.043221,"1550": 0.028814,"1575": 0.014407,"1600": 0.014408,"1650": 0.014408}}}