{"type":"Feature","properties":{"ISO3166-1-Alpha-3":"LIE","country":"Liechtenstein","fill":"#FF0","id":"4902","name":"Eschen"},
"geometry":{"type": "Polygon","coordinates": [[[9.54217,47.21081,439.6651],[9.52493,47.21693,524.1276],[9.51993,47.22527,536.314],[9.5127,47.22471,472.7693],[9.50825,47.2147,514.3041],[9.50936,47.20469,439.2323],[9.51882,47.19969,439.3331],[9.53105,47.19468,438.3681],[9.53995,47.19969,444.0668],[9.55163,47.19746,531.2758],[9.56188,47.19061,1211.9357],[9.56291,47.19774,806.7904],[9.55433,47.21162,442.202],[9.54217,47.21081,439.6651]]]}}