{"type": "Feature","id": "4892","bbox": [9.52716,47.07759,9.61572,47.16076],"geometry": {"type": "MultiPolygon","coordinates": [[[[9.6088,47.08077,2338.1206],[9.61572,47.10676,1795.4712],[9.61416,47.1107,1935.1216],[9.60001,47.11071,1540.3179],[9.59167,47.11127,1423.1727],[9.59834,47.09904,1771.394],[9.59778,47.09069,1981.49],[9.60056,47.08235,2009.1415],[9.60513,47.07759,1955.332],[9.6088,47.08077,2338.1206]]],
[[[9.56887,47.09792,1839.4889],[9.56831,47.10738,1567.4655],[9.57609,47.10849,1306.1635],[9.57387,47.1235,1557.7686],[9.56998,47.13296,1182.6844],[9.56108,47.13741,1591.0074],[9.5633,47.14797,1950.0968],[9.55552,47.15353,1740.2024],[9.54829,47.16076,1498.6876],[9.54551,47.15186,1416.7946],[9.54217,47.14575,1401.2061],[9.53161,47.14575,892.1883],[9.52771,47.14297,692.8786],[9.52716,47.13073,598.7103],[9.53328,47.12517,791.343],[9.53439,47.11516,657.9181],[9.53717,47.10293,603.8282],[9.54773,47.09737,1006.4591],[9.55663,47.09625,1315.6338],[9.56052,47.08903,1397.4431],[9.56775,47.08847,1808.9274],[9.56887,47.09792,1839.4889]]]]}
,"properties": {"ISO3166-1-Alpha-3": "LIE","country": "Liechtenstein","fill": "#000","name": "Triesenberg","area_km2": 20.89145,"hist_schema_id": "Elevation0-9000","hist_area_km2": {"600": 0.01442,"625": 0.04329,"650": 0.10099,"675": 0.18755,"700": 0.1587,"725": 0.18757,"750": 0.25971,"775": 0.18755,"800": 0.41839,"825": 0.34628,"850": 0.24528,"875": 0.41842,"900": 0.28854,"925": 0.36065,"950": 0.38953,"975": 0.27413,"1000": 0.30298,"1025": 0.47612,"1050": 0.33183,"1075": 0.25972,"1100": 0.41841,"1125": 0.25968,"1150": 0.36068,"1175": 0.21639,"1200": 0.49052,"1225": 0.33182,"1250": 0.57704,"1275": 0.46166,"1300": 0.62036,"1325": 0.51938,"1350": 0.38953,"1375": 0.57707,"1400": 0.46165,"1425": 0.44721,"1450": 0.47607,"1475": 0.60589,"1500": 0.3751,"1525": 0.5338,"1550": 0.43284,"1575": 0.51935,"1600": 0.49053,"1625": 0.5483,"1650": 0.50497,"1675": 0.62042,"1700": 0.46176,"1725": 0.54823,"1750": 0.41839,"1775": 0.46168,"1800": 0.37509,"1825": 0.18755,"1850": 0.20201,"1875": 0.30301,"1900": 0.23089,"1925": 0.15866,"1950": 0.11547,"1975": 0.17321,"2000": 0.14437,"2025": 0.12992,"2050": 0.08662,"2075": 0.1588,"2100": 0.02887,"2125": 0.07218,"2150": 0.02888,"2175": 0.05775,"2200": 0.02887,"2225": 0.02887}}}