{"type":"Feature","properties":{"GID_1":"LIE.10_1","GID_0":"LIE","country":"Liechtenstein","province":"Triesenberg","VARNAME_1":"NA","NL_NAME_1":"NA","TYPE_1":"Gemeinden","ENGTYPE_1":"Commune","CC_1":"NA","HASC_1":"LI.TB","ISO_1":"LI-10","name":"Triesenberg.province"},
"geometry":{"type": "MultiPolygon","coordinates": [[[[9.6057,47.1126,1698.4344],[9.6017,47.1129,1658.8667],[9.5955,47.1107,1459.6672],[9.6063,47.1045,1564.8505],[9.6095,47.0988,1623.4976],[9.6053,47.0894,1971.8904],[9.6124,47.0798,2317.2463],[9.6189,47.0787,2225.4995],[9.6237,47.0831,1955.5598],[9.6338,47.084,1802.6346],[9.6359,47.0968,1626.4958],[9.6346,47.1017,1556.5046],[9.6284,47.106,1962.1123],[9.6288,47.1081,2043.4812],[9.6232,47.1086,2133.4351],[9.6209,47.1111,2174.0791],[9.613,47.1127,1923.5422],[9.6057,47.1126,1698.4344]]],
[[[9.5837,47.15,996.21],[9.5862,47.158,1010.9836],[9.5795,47.1597,1281.2096],[9.5621,47.1685,1999.6416],[9.5577,47.1645,2002.6777],[9.5531,47.1549,1794.1089],[9.5544,47.1502,1908.4655],[9.5475,47.1477,1763.1753],[9.5443,47.15,1344.4983],[9.5405,47.1499,1139.751],[9.5401,47.1453,1358.6193],[9.5349,47.1478,1027.9971],[9.5365,47.1432,1103.3301],[9.5337,47.142,1037.2706],[9.532,47.1387,906.8121],[9.5322,47.1352,833.8632],[9.5362,47.1304,915.523],[9.5355,47.1277,933.9543],[9.5331,47.1271,870.8807],[9.5373,47.1213,824.9288],[9.5367,47.1199,768.926],[9.5416,47.1182,856.5216],[9.5426,47.1162,827.3622],[9.5403,47.1075,752.6276],[9.5417,47.1057,819.2273],[9.5492,47.1059,1038.9233],[9.5624,47.0958,1689.8201],[9.5673,47.0974,1894.1058],[9.57,47.0952,1862.5262],[9.5702,47.0906,1883.5149],[9.574,47.0897,1726.1226],[9.5785,47.0902,1613.1023],[9.5806,47.0926,1510.6504],[9.579,47.1018,1356.7183],[9.5853,47.1021,1657.9572],[9.5839,47.1076,1410.3771],[9.5896,47.1261,2033.7687],[9.5792,47.1281,1606.1625],[9.57,47.1344,1203.3008],[9.5818,47.1438,1074.0278],[9.5837,47.15,996.21]]]]}}