{"type": "Feature","bbox": [9.4725,47.0486,9.6352,47.1642],"geometry": {"type": "MultiPolygon","coordinates": [[[[9.5322,47.0805,664.2063],[9.5257,47.0821,531.8904],[9.5203,47.0884,471.8552],[9.5162,47.0834,474.0241],[9.5075,47.079,471.823],[9.4738,47.0664,475.1769],[9.4725,47.0627,477.095],[9.4737,47.0569,477.2971],[9.4761,47.0534,479.5685],[9.4825,47.0531,654.3271],[9.4847,47.0498,679.6625],[9.4879,47.0486,803.402],[9.4938,47.0542,694.1464],[9.501,47.053,605.905],[9.5435,47.0635,1934.7184],[9.5342,47.0713,1714.2653],[9.5326,47.0745,1376.1747],[9.5336,47.0801,843.1573],[9.5322,47.0805,664.2063]]],
[[[9.5742,47.0897,1726.1226],[9.5702,47.0906,1883.5149],[9.566,47.0876,1747.8604],[9.5648,47.0857,1735.4656],[9.5655,47.0787,2080.3491],[9.5704,47.0746,2114.8928],[9.5738,47.0741,2010.3829],[9.5848,47.0771,1589.4468],[9.5802,47.0812,1707.6993],[9.5793,47.0862,1705.33],[9.5773,47.0879,1776.0308],[9.5785,47.0902,1613.1023],[9.5742,47.0897,1726.1226]]],
[[[9.6015,47.1566,1692.7809],[9.6006,47.1589,1518.6257],[9.5918,47.1642,919.6779],[9.5853,47.1566,1014.665],[9.5832,47.1475,1014.8333],[9.5992,47.1436,1349.7913],[9.6075,47.1384,1451.3438],[9.6099,47.1359,1548.7759],[9.6139,47.1222,1689.9189],[9.6251,47.1187,2119.0693],[9.6352,47.1287,2090.3665],[9.6249,47.1332,1858.4028],[9.6252,47.1391,1872.5134],[9.6228,47.142,1848.665],[9.6261,47.1465,1954.403],[9.6235,47.1477,1962.9176],[9.6209,47.1522,2085.6084],[9.6142,47.1481,1977.0952],[9.6072,47.149,1861.9714],[9.6031,47.1522,1828.9214],[9.6015,47.1566,1692.7809]]]]}
,"properties": {"GID_1": "LIE.1_1","GID_0": "LIE","country": "Liechtenstein","province": "Balzers","VARNAME_1": "NA","NL_NAME_1": "NA","TYPE_1": "Gemeinden","ENGTYPE_1": "Commune","CC_1": "NA","HASC_1": "LI.BA","ISO_1": "LI-01","name": "Balzers.province","area_km2": 20.45368,"hist_schema_id": "Elevation0-9000","hist_area_km2": {"475": 5.84887,"500": 0.86649,"525": 0.38991,"550": 0.40439,"575": 0.38995,"600": 0.25998,"625": 0.25998,"650": 0.23109,"675": 0.13,"700": 0.17332,"725": 0.17333,"750": 0.14441,"775": 0.08665,"800": 0.08664,"825": 0.01444,"850": 0.05777,"875": 0.04332,"900": 0.14436,"925": 0.07219,"950": 0.08659,"975": 0.07218,"1000": 0.10104,"1025": 0.05774,"1050": 0.08657,"1075": 0.14433,"1100": 0.08657,"1125": 0.10099,"1150": 0.07211,"1175": 0.14428,"1200": 0.15869,"1225": 0.08657,"1250": 0.11541,"1275": 0.11545,"1300": 0.23093,"1325": 0.08653,"1350": 0.04328,"1375": 0.04326,"1400": 0.18751,"1425": 0.11542,"1450": 0.14421,"1475": 0.15872,"1500": 0.18759,"1525": 0.20193,"1550": 0.17307,"1575": 0.27409,"1600": 0.25966,"1625": 0.28858,"1650": 0.27405,"1675": 0.46169,"1700": 0.43285,"1725": 0.43284,"1750": 0.62044,"1775": 0.66367,"1800": 0.46163,"1825": 0.43281,"1850": 0.50502,"1875": 0.54827,"1900": 0.33189,"1925": 0.47609,"1950": 0.27416,"1975": 0.27412,"2000": 0.15872,"2025": 0.1876,"2050": 0.14431,"2075": 0.10101,"2100": 0.05771,"2150": 0.01442}}}