{"type":"Feature","properties":{"ISO3166-1-Alpha-3":"LIE","country":"Liechtenstein","fill":"#FF0","id":"4894","name":"Balzers"},
"geometry":{"type": "MultiPolygon","coordinates": [[[[9.57053,47.07568,2035.0223],[9.57165,47.08291,1953.1255],[9.56775,47.08847,1808.9274],[9.56052,47.08903,1397.4431],[9.55441,47.08291,1578.6729],[9.56052,47.07568,1860.1636],[9.57053,47.07568,2035.0223]]],
[[[9.53216,47.06233,1687.3923],[9.52938,47.07067,1272.7544],[9.52271,47.07846,551.7783],[9.52215,47.0868,474.2679],[9.51214,47.08847,470.8011],[9.50286,47.0947,477.3694],[9.48757,47.08395,536.2679],[9.47589,47.07323,495.6254],[9.47702,47.0639,478.2013],[9.49955,47.05935,481.9928],[9.53313,47.05553,1310.6058],[9.53216,47.06233,1687.3923]]],
[[[9.60951,47.12241,1671.5385],[9.60559,47.13227,1544.1013],[9.58182,47.1549,1136.087],[9.56711,47.16082,1638.8933],[9.5633,47.14797,1950.0968],[9.57276,47.14408,1418.2048],[9.58054,47.13852,1307.8181],[9.59,47.13129,1909.5559],[9.59889,47.12128,1832.7268],[9.60951,47.12241,1671.5385]]]]}}