{"type": "Feature","id": "4898","bbox": [9.49704,47.22471,9.53418,47.2628],"geometry": {"type": "Polygon","coordinates": [[[9.53418,47.25118,430.6548],[9.53025,47.25365,431.1848],[9.52115,47.2628,430.1779],[9.50462,47.24373,445.2782],[9.49704,47.22893,436.1282],[9.5038,47.22749,439.257],[9.5127,47.22471,472.7693],[9.51993,47.22527,536.314],[9.51937,47.23139,434.8565],[9.52605,47.23806,435.2146],[9.52938,47.24473,432.6179],[9.53418,47.25118,430.6548]]]}
,"properties": {"ISO3166-1-Alpha-3": "LIE","country": "Liechtenstein","fill": "#F00","name": "Ruggell","area_km2": 5.944851,"hist_schema_id": "Elevation0-9000","hist_area_km2": {"425": 4.663657,"450": 1.13721,"475": 0.08639,"500": 0.043195,"525": 0.014399}}}