{"type":"Feature","properties":{"GID_1":"LIE.6_1","GID_0":"LIE","country":"Liechtenstein","province":"Ruggell","VARNAME_1":"NA","NL_NAME_1":"NA","TYPE_1":"Gemeinden","ENGTYPE_1":"Commune","CC_1":"NA","HASC_1":"LI.RU","ISO_1":"LI-06","name":"Ruggell.province"},
"geometry":{"type": "MultiPolygon","coordinates": [[[[9.5367,47.2665,429.174],[9.5321,47.2703,432.8688],[9.5306,47.2689,432.8688],[9.5312,47.2622,434.6056],[9.5294,47.2582,432.013],[9.5209,47.243,433.8101],[9.5146,47.2355,437.411],[9.5173,47.2345,435.0542],[9.5219,47.2365,435.0504],[9.5273,47.2325,455.6594],[9.5281,47.2298,529.5195],[9.5319,47.2292,538.0659],[9.5347,47.2324,476.6469],[9.538,47.2324,464.5016],[9.5484,47.237,629.7789],[9.558,47.2448,505.4251],[9.5587,47.2462,453.4561],[9.5467,47.2397,430.5906],[9.5411,47.243,430.6595],[9.556,47.2532,432.6449],[9.5397,47.262,428.7659],[9.5401,47.2656,428.6156],[9.5367,47.2665,429.174]]]]}}