{"type":"Feature","properties":{"ISO3166-1-Alpha-3":"LIE","country":"Liechtenstein","fill":"#00F","id":"4893","name":"Triesen"},
"geometry":{"type": "Polygon","coordinates": [[[9.56052,47.08903,1397.4431],[9.55663,47.09625,1315.6338],[9.54773,47.09737,1006.4591],[9.53717,47.10293,603.8282],[9.53439,47.11516,657.9181],[9.53328,47.12517,791.343],[9.52716,47.13073,598.7103],[9.51185,47.12937,463.4417],[9.51237,47.10803,464.3793],[9.50286,47.0947,477.3694],[9.51214,47.08847,470.8011],[9.52215,47.0868,474.2679],[9.52271,47.07846,551.7783],[9.52938,47.07067,1272.7544],[9.53216,47.06233,1687.3923],[9.53313,47.05553,1310.6058],[9.56064,47.0524,2086.2629],[9.5812,47.05687,2164.2827],[9.58825,47.06298,1944.7197],[9.58444,47.07512,1689.7883],[9.58277,47.0868,1549.6869],[9.56775,47.08847,1808.9274],[9.57165,47.08291,1953.1255],[9.57053,47.07568,2035.0223],[9.56052,47.07568,1860.1636],[9.55441,47.08291,1578.6729],[9.56052,47.08903,1397.4431]]]}}