{"type":"Feature","properties":{"GID_1":"LIE.9_1","GID_0":"LIE","country":"Liechtenstein","province":"Triesen","VARNAME_1":"NA","NL_NAME_1":"NA","TYPE_1":"Gemeinden","ENGTYPE_1":"Commune","CC_1":"NA","HASC_1":"LI.TN","ISO_1":"LI-09","name":"Triesen.province"},
"geometry":{"type": "MultiPolygon","coordinates": [[[[9.5435,47.0635,1934.7184],[9.555,47.0584,2074.4434],[9.557,47.0501,2281.6729],[9.5616,47.0474,2412.8074],[9.572,47.0518,2410.1414],[9.5913,47.0548,2454.9839],[9.6069,47.0615,2493.8716],[9.5948,47.0706,1722.665],[9.5975,47.0727,1738.2739],[9.5899,47.0861,1452.7814],[9.5907,47.0898,1584.1628],[9.5861,47.0968,1614.0754],[9.5853,47.1021,1657.9572],[9.579,47.1017,1356.7183],[9.5807,47.0927,1510.6504],[9.5773,47.0881,1776.0308],[9.5793,47.0862,1705.33],[9.5803,47.0811,1707.6993],[9.5848,47.0772,1589.4468],[9.5768,47.0742,1931.6582],[9.5704,47.0746,2114.8928],[9.5648,47.0799,2059.7314],[9.5648,47.0858,1735.4656],[9.5702,47.0906,1883.5149],[9.5699,47.0952,1862.5262],[9.5671,47.0974,1894.1058],[9.562,47.096,1689.8201],[9.5491,47.1059,1038.9233],[9.5419,47.1055,819.2273],[9.5403,47.1075,752.6276],[9.5426,47.1162,827.3622],[9.5416,47.1182,856.5216],[9.5367,47.1199,768.926],[9.5373,47.1213,824.9288],[9.5331,47.1271,870.8807],[9.5166,47.1268,458.7521],[9.5191,47.1186,460.9852],[9.5185,47.1141,462.1419],[9.5234,47.1029,467.2794],[9.5233,47.0942,467.9955],[9.5203,47.0884,471.8552],[9.526,47.082,536.4611],[9.5335,47.0803,843.1573],[9.5326,47.0743,1376.1747],[9.5342,47.0713,1714.2653],[9.5435,47.0635,1934.7184]]]]}}