{"type":"Feature","properties":{"ISO3166-1-Alpha-3":"LIE","country":"Liechtenstein","fill":"#F00","id":"4896","name":"Schaan"},
"geometry":{"type": "MultiPolygon","coordinates": [[[[9.60513,47.07759,1955.332],[9.60056,47.08235,2009.1415],[9.59778,47.09069,1981.49],[9.58277,47.0868,1549.6869],[9.58444,47.07512,1689.7883],[9.58825,47.06298,1944.7197],[9.60513,47.07759,1955.332]]],
[[[9.59,47.13129,1909.5559],[9.58054,47.13852,1307.8181],[9.57276,47.14408,1418.2048],[9.5633,47.14797,1950.0968],[9.56108,47.13741,1591.0074],[9.56998,47.13296,1182.6844],[9.57387,47.1235,1557.7686],[9.57609,47.10849,1306.1635],[9.58555,47.1096,1532.9492],[9.59167,47.11127,1423.1727],[9.60001,47.11071,1540.3179],[9.61416,47.1107,1935.1216],[9.60951,47.12241,1671.5385],[9.59889,47.12128,1832.7268],[9.59,47.13129,1909.5559]]],
[[[9.49991,47.1919,440.9905],[9.48643,47.19692,442.8044],[9.48498,47.17635,450.0557],[9.49263,47.15981,451.643],[9.49553,47.15595,452.6695],[9.50825,47.15298,461.8378],[9.50547,47.1691,448.4308],[9.5127,47.16744,468.17],[9.5177,47.16132,526.4811],[9.52549,47.16521,611.1251],[9.53828,47.16243,900.6868],[9.54829,47.16076,1498.6876],[9.55206,47.16689,1553.7256],[9.55195,47.17557,1318.8599],[9.54106,47.17745,881.8544],[9.52994,47.18579,445.1124],[9.53105,47.19468,438.3681],[9.51715,47.19135,440.6575],[9.49991,47.1919,440.9905]]]]}}