{"type":"Feature","properties":{"GID_1":"LIE.7_1","GID_0":"LIE","country":"Liechtenstein","province":"Schaan","VARNAME_1":"NA","NL_NAME_1":"NA","TYPE_1":"Gemeinden","ENGTYPE_1":"Commune","CC_1":"NA","HASC_1":"LI.SN","ISO_1":"LI-07","name":"Schaan.province"},
"geometry":{"type": "MultiPolygon","coordinates": [[[[9.6042,47.0891,1939.4701],[9.5894,47.0923,1601.8647],[9.5907,47.0897,1584.1628],[9.5899,47.0861,1452.7814],[9.5975,47.0727,1738.2739],[9.5948,47.0706,1722.665],[9.6069,47.0615,2493.8716],[9.6119,47.0651,2276.4246],[9.6113,47.0674,2180.8711],[9.6136,47.0719,2090.2551],[9.6107,47.0758,2199.3699],[9.6125,47.0797,2317.2463],[9.6053,47.0894,1971.8904],[9.6042,47.0891,1939.4701]]],
[[[9.5861,47.1469,1153.4434],[9.5832,47.1475,1014.8333],[9.5818,47.1438,1074.0278],[9.5757,47.1395,1079.3197],[9.5748,47.1373,1163.6952],[9.5729,47.1379,1216.9248],[9.57,47.134,1203.3008],[9.5792,47.1281,1606.1625],[9.5895,47.1263,2033.7687],[9.5859,47.1124,1436.3867],[9.5955,47.1107,1459.6672],[9.602,47.1129,1658.8667],[9.6211,47.111,2211.8857],[9.6238,47.1134,2200.5625],[9.6251,47.1187,2119.0693],[9.614,47.1221,1689.9189],[9.6117,47.1288,1581.5417],[9.6056,47.1291,1645.9148],[9.6028,47.1309,1667.6323],[9.5942,47.1308,2002.2927],[9.5919,47.1322,1907.389],[9.5895,47.1357,1664.188],[9.5962,47.1368,1588.8997],[9.6017,47.1419,1417.129],[9.5861,47.1469,1153.4434]]],
[[[9.5106,47.1897,440.3242],[9.5065,47.1962,439.3049],[9.4959,47.1899,442.5428],[9.4932,47.1937,441.4225],[9.4896,47.1954,447.2068],[9.4864,47.1818,444.7308],[9.4927,47.1613,448.1436],[9.5042,47.1455,454.3468],[9.5113,47.1391,459.085],[9.509,47.1455,455.0351],[9.5018,47.153,452.489],[9.5062,47.153,457.3043],[9.5132,47.1454,460.1555],[9.5169,47.1465,491.7804],[9.5123,47.1507,496.5838],[9.5084,47.1579,456.3228],[9.5093,47.1591,454.7378],[9.4985,47.1655,447.3634],[9.4974,47.1698,447.7117],[9.5087,47.1687,449.6412],[9.5101,47.1609,466.1508],[9.5156,47.1586,505.8135],[9.5218,47.16,584.9177],[9.5215,47.1645,552.2987],[9.5241,47.1649,597.4664],[9.5259,47.1673,558.7846],[9.5575,47.1641,2002.6777],[9.5679,47.174,1944.5524],[9.5574,47.1787,1405.1501],[9.5532,47.1788,1309.4653],[9.5515,47.1775,1307.6169],[9.545,47.1786,973.4719],[9.5447,47.1827,793.3676],[9.5404,47.1862,663.4106],[9.5437,47.191,539.8469],[9.5533,47.1927,782.5551],[9.5486,47.1951,560.9202],[9.535,47.1943,440.9032],[9.5392,47.1913,477.1733],[9.5378,47.1894,442.5415],[9.5274,47.1952,438.7714],[9.5189,47.1957,438.8878],[9.5218,47.1854,442.5028],[9.5136,47.1852,441.365],[9.5106,47.1897,440.3242]],
[[9.5244,47.1793,488.7677],[9.5247,47.1813,471.0724],[9.5318,47.1781,550.6443],[9.5295,47.1761,534.729],[9.5244,47.1793,488.7677]],
[[9.5342,47.1879,442.7113],[9.5369,47.187,494.9328],[9.5371,47.1858,494.9328],[9.5343,47.186,446.183],[9.5342,47.1879,442.7113]]],
[[[9.5525,47.1825,1061.387],[9.5479,47.1833,975.8318],[9.5506,47.1803,1139.1208],[9.5544,47.1807,1173.8035],[9.5525,47.1825,1061.387]]]]}}