{"type": "Feature","id": "4901","bbox": [9.52994,47.14797,9.56711,47.19969],"geometry": {"type": "MultiPolygon","coordinates": [[[[9.56711,47.16082,1638.8933],[9.55206,47.16689,1553.7256],[9.54829,47.16076,1498.6876],[9.55552,47.15353,1740.2024],[9.5633,47.14797,1950.0968],[9.56711,47.16082,1638.8933]]],
[[[9.56188,47.19061,1211.9357],[9.55163,47.19746,531.2758],[9.53995,47.19969,444.0668],[9.53105,47.19468,438.3681],[9.52994,47.18579,445.1124],[9.54106,47.17745,881.8544],[9.55195,47.17557,1318.8599],[9.56188,47.19061,1211.9357]]]]}
,"properties": {"ISO3166-1-Alpha-3": "LIE","country": "Liechtenstein","fill": "#00F","name": "Planken","area_km2": 5.951768,"hist_schema_id": "Elevation0-9000","hist_area_km2": {"450": 0.878878,"475": 0.316963,"500": 0.187301,"525": 0.172893,"550": 0.072037,"575": 0.057636,"600": 0.129677,"625": 0.072044,"650": 0.057633,"675": 0.100859,"700": 0.086452,"725": 0.14409,"750": 0.129683,"775": 0.129682,"800": 0.230547,"825": 0.129685,"850": 0.086458,"875": 0.144095,"900": 0.115276,"925": 0.072052,"950": 0.158512,"975": 0.100873,"1000": 0.201731,"1025": 0.086465,"1050": 0.072054,"1075": 0.05764,"1100": 0.129685,"1125": 0.043235,"1150": 0.028821,"1175": 0.014412,"1200": 0.028822,"1250": 0.014412,"1275": 0.043234,"1300": 0.014412,"1325": 0.014412,"1350": 0.014411,"1500": 0.043247,"1525": 0.043251,"1550": 0.072083,"1575": 0.086504,"1600": 0.144166,"1625": 0.086503,"1650": 0.129758,"1675": 0.115342,"1700": 0.144171,"1725": 0.086504,"1750": 0.100919,"1775": 0.04325,"1800": 0.115336,"1825": 0.07208,"1850": 0.072083,"1875": 0.057668,"1900": 0.057667,"1925": 0.072084,"1950": 0.014417,"1975": 0.028831,"2000": 0.028831}}}