{"type": "Feature","bbox": [9.5274,47.158,9.6011,47.1952],"geometry": {"type": "MultiPolygon","coordinates": [[[[9.5831,47.1698,1559.8757],[9.5797,47.1717,1796.9885],[9.5715,47.1701,1942.4244],[9.5648,47.1708,1953.3009],[9.5657,47.1714,1964.9808],[9.5645,47.1708,1953.3009],[9.5621,47.1685,1999.6416],[9.5825,47.1586,1081.655],[9.5862,47.158,1010.9836],[9.5918,47.1642,919.6779],[9.6011,47.1582,1594.8616],[9.601,47.1596,1518.6257],[9.597,47.1635,1198.7224],[9.5831,47.1698,1559.8757]]],
[[[9.5664,47.1905,1403.7372],[9.564,47.1938,1057.3459],[9.5621,47.19,1210.0254],[9.5573,47.1899,1035.2323],[9.5533,47.1927,782.5551],[9.549,47.1921,694.1113],[9.5437,47.191,539.8469],[9.5404,47.1861,663.4106],[9.5447,47.1827,793.3676],[9.5451,47.1786,973.4719],[9.5515,47.1775,1307.6169],[9.5532,47.1788,1309.4653],[9.5574,47.1787,1405.1501],[9.5679,47.174,1944.5524],[9.5733,47.1762,1941.7001],[9.5745,47.1787,1810.9299],[9.5731,47.1899,1617.6052],[9.5699,47.1912,1540.1841],[9.5664,47.1905,1403.7372]],
[[9.55,47.1813,1089.5631],[9.548,47.1819,1032.8463],[9.548,47.1834,975.8318],[9.5546,47.181,1173.8035],[9.5509,47.1802,1139.1208],[9.55,47.1813,1089.5631]]],
[[[9.5355,47.1854,490.5502],[9.5369,47.187,494.9328],[9.5342,47.1878,442.7113],[9.5336,47.1868,446.183],[9.5355,47.1854,490.5502]]],
[[[9.5291,47.1951,439.1099],[9.5274,47.1952,438.7714],[9.5376,47.1894,442.5415],[9.5392,47.1909,477.1733],[9.5346,47.1945,440.9032],[9.5291,47.1951,439.1099]]]]}
,"properties": {"GID_1": "LIE.5_1","GID_0": "LIE","country": "Liechtenstein","province": "Planken","VARNAME_1": "NA","NL_NAME_1": "NA","TYPE_1": "Gemeinden","ENGTYPE_1": "Commune","CC_1": "NA","HASC_1": "LI.PL","ISO_1": "LI-05","name": "Planken.province","area_km2": 5.764644,"hist_schema_id": "Elevation0-9000","hist_area_km2": {"450": 0.216116,"475": 0.01441,"575": 0.014408,"625": 0.014408,"650": 0.028816,"675": 0.057634,"700": 0.028818,"725": 0.057635,"750": 0.072042,"775": 0.100863,"800": 0.14409,"825": 0.086455,"850": 0.043228,"875": 0.072044,"900": 0.144112,"925": 0.086477,"950": 0.187353,"975": 0.100881,"1000": 0.18735,"1025": 0.086471,"1050": 0.086482,"1075": 0.144115,"1100": 0.172937,"1125": 0.115309,"1150": 0.158544,"1175": 0.07206,"1200": 0.15854,"1225": 0.057652,"1250": 0.172934,"1275": 0.172943,"1300": 0.172942,"1325": 0.1297,"1350": 0.115311,"1375": 0.144111,"1400": 0.100881,"1425": 0.158523,"1450": 0.100884,"1475": 0.086478,"1500": 0.129713,"1525": 0.086472,"1550": 0.158532,"1575": 0.129703,"1600": 0.129709,"1625": 0.144115,"1650": 0.115294,"1675": 0.10089,"1700": 0.086483,"1725": 0.072062,"1750": 0.057654,"1775": 0.04324,"1800": 0.072067,"1825": 0.08648,"1850": 0.043239,"1875": 0.057655,"1900": 0.028828,"1925": 0.057652,"1950": 0.043242,"1975": 0.014414,"2000": 0.014414,"2025": 0.014414,"2050": 0.014414}}}